[{"OBJECT_NAME":"STARLINK-6086","OBJECT_ID":"2023-065AU","EPOCH":"2026-03-09T22:00:01.999584","MEAN_MOTION":15.14957238,"ECCENTRICITY":0.00012443,"INCLINATION":43.0008,"RA_OF_ASC_NODE":221.4166,"ARG_OF_PERICENTER":294.4132,"MEAN_ANOMALY":193.3936,"EPHEMERIS_TYPE":0,"CLASSIFICATION_TYPE":"U","NORAD_CAT_ID":56545,"ELEMENT_SET_NO":999,"REV_AT_EPOCH":577,"BSTAR":0.0067499793,"MEAN_MOTION_DOT":0.00130285,"MEAN_MOTION_DDOT":0},{"OBJECT_NAME":"BRO-17","OBJECT_ID":"2025-276G","EPOCH":"2026-03-09T22:51:10.024704","MEAN_MOTION":15.17264745,"ECCENTRICITY":0.00064584,"INCLINATION":97.4258,"RA_OF_ASC_NODE":144.0221,"ARG_OF_PERICENTER":0.3846,"MEAN_ANOMALY":359.7392,"EPHEMERIS_TYPE":0,"CLASSIFICATION_TYPE":"U","NORAD_CAT_ID":66672,"ELEMENT_SET_NO":999,"REV_AT_EPOCH":1534,"BSTAR":0.00022162423,"MEAN_MOTION_DOT":4.348e-5,"MEAN_MOTION_DDOT":0}]
